{
    "links": {
        "self": "http://www.neowsapp.com/rest/v1/neo/3726333?api_key=iIulBulltgU6a56xZRHN4H3l9WmuAYTsLGpBGhQ2"
    },
    "id": "3726333",
    "neo_reference_id": "3726333",
    "name": "(2015 OQ79)",
    "designation": "2015 OQ79",
    "nasa_jpl_url": "http://ssd.jpl.nasa.gov/sbdb.cgi?sstr=3726333",
    "absolute_magnitude_h": 23.687,
    "estimated_diameter": {
        "kilometers": {
            "estimated_diameter_min": 0.048658081,
            "estimated_diameter_max": 0.1088027767
        },
        "meters": {
            "estimated_diameter_min": 48.6580809531,
            "estimated_diameter_max": 108.8027766659
        },
        "miles": {
            "estimated_diameter_min": 0.0302347204,
            "estimated_diameter_max": 0.0676068901
        },
        "feet": {
            "estimated_diameter_min": 159.6393783143,
            "estimated_diameter_max": 356.9645017965
        }
    },
    "is_potentially_hazardous_asteroid": false,
    "close_approach_data": [
        {
            "close_approach_date": "2015-08-20",
            "close_approach_date_full": "2015-Aug-20 07:39",
            "epoch_date_close_approach": 1440056340000,
            "relative_velocity": {
                "kilometers_per_second": "9.2694698024",
                "kilometers_per_hour": "33370.0912886975",
                "miles_per_hour": "20734.8770010243"
            },
            "miss_distance": {
                "astronomical": "0.1707534406",
                "lunar": "66.4230883934",
                "kilometers": "25544351.008931522",
                "miles": "15872523.6982461236"
            },
            "orbiting_body": "Earth"
        }
    ],
    "orbital_data": {
        "orbit_id": "3",
        "orbit_determination_date": "2017-04-06 08:32:37",
        "first_observation_date": "2015-07-26",
        "last_observation_date": "2015-07-27",
        "data_arc_in_days": 1,
        "observations_used": 17,
        "orbit_uncertainty": "9",
        "minimum_orbit_intersection": ".166626",
        "jupiter_tisserand_invariant": "4.105",
        "epoch_osculation": "2457230.5",
        "eccentricity": ".3868984473325416",
        "semi_major_axis": "1.691200127861264",
        "inclination": "12.16790818241146",
        "ascending_node_longitude": "113.6677990290777",
        "orbital_period": "803.3243495708074",
        "perihelion_distance": "1.036877424263145",
        "perihelion_argument": "257.0828892708359",
        "aphelion_distance": "2.345522831459383",
        "perihelion_time": "2457294.225868832932",
        "mean_anomaly": "331.4420298698622",
        "mean_motion": ".448137791655808",
        "equinox": "J2000",
        "orbit_class": {
            "orbit_class_type": "AMO",
            "orbit_class_description": "Near-Earth asteroid orbits similar to that of 1221 Amor",
            "orbit_class_range": "1.017 AU < q (perihelion) < 1.3 AU"
        }
    },
    "is_sentry_object": false
}